APRIZESAT 2             
1 28366U 04025A   26190.27208912  .00000160  00000+0  62531-4 0  9992
2 28366  98.1034 355.0043 0105526 182.7174 177.3454 14.38045813154818
SAUDICOMSAT 1           
1 28369U 04025D   26192.48970257  .00000175  00000+0  51431-4 0  9991
2 28369  98.5776 203.2774 0031139 310.6222  49.2266 14.55491991167663
SAUDICOMSAT 2           
1 28370U 04025E   26192.48439061  .00000103  00000+0  38819-4 0  9992
2 28370  98.6642 205.4176 0055379 184.9244 175.1411 14.49993238163623
APRIZESAT 1             
1 28372U 04025G   26192.27922051  .00000145  00000+0  47605-4 0  9996
2 28372  98.6308 203.6606 0045815  82.2635 278.3758 14.51790644165407
NANOSAT-1               
1 28493U 04049B   26192.36990449  .00000564  00000+0  81511-4 0  9991
2 28493  98.2304 329.6266 0003490 197.0748 163.0346 14.80206448159027
SAUDICOMSAT 7           
1 31119U 07012C   26192.47732796  .00000272  00000+0  57785-4 0  9996
2 31119  98.3795 167.1082 0056850 119.6863 241.0016 14.66134308 25996
SAUDICOMSAT 6           
1 31121U 07012E   26191.14546664  .00000254  00000+0  58592-4 0  9996
2 31121  98.4113 159.0913 0070388 255.1142 104.2256 14.62582004 23546
SAUDICOMSAT 5           
1 31124U 07012H   26192.48489549  .00000371  00000+0  72598-4 0  9997
2 31124  98.3506 167.8579 0048446  50.3060 310.2401 14.68189272 27162
SAUDICOMSAT 3           
1 31125U 07012J   26192.47126403  .00000430  00000+0  78635-4 0  9998
2 31125  98.3161 168.3907 0038522 337.1958  22.7535 14.70746261 28396
SAUDICOMSAT 4           
1 31127U 07012L   26192.47744264  .00000214  00000+0  49132-4 0  9991
2 31127  98.4001 165.5455 0063289 181.3413 178.7629 14.64533487 24841
APRIZESAT 4             
1 35684U 09041D   26191.58820809  .00000399  00000+0  54416-4 0  9993
2 35684  98.1405 267.3745 0042009 244.8711 114.8142 14.83909911914832
APRIZESAT 3             
1 35686U 09041F   26192.37396106  .00001064  00000+0  96629-4 0  9993
2 35686  98.2090 346.7610 0061044 348.5178  11.4645 14.96303123919996
S-NET D                 
1 43186U 18014G   26191.61765389  .00003549  00000+0  18357-3 0  9997
2 43186  97.5340  96.2628 0006440 304.7096  55.3530 15.16892455462311
S-NET B                 
1 43187U 18014H   26192.15730542  .00003099  00000+0  16086-3 0  9998
2 43187  97.5347  96.7865 0007015 296.4851  63.5663 15.16864719462390
S-NET A                 
1 43188U 18014J   26192.53992088  .00003026  00000+0  15695-3 0  9991
2 43188  97.5357  97.3804 0006891 295.5438  64.5082 15.16906119462458
S-NET C                 
1 43189U 18014K   26192.49114637  .00003015  00000+0  15658-3 0  9990
2 43189  97.5374  97.4100 0008141 286.2019  73.8318 15.16858032460992
SALSAT                  
1 46495U 20068K   26192.47522477  .00004471  00000+0  15610-3 0  9993
2 46495  97.8856 197.0247 0008815 206.7694 153.3092 15.30138870319078
OOV-CUBE (TUBSAT-30)    
1 60240U 24128F   26192.40803188  .00001201  00000+0  10331-3 0  9995
2 60240  61.9942 141.1095 0041583 139.1306 221.2916 15.02864718109757
LPNTSAT-001 (IOD-1)     
1 68408U 26065A   26192.12741743  .00001447  00000+0  72936-4 0  9990
2 68408  97.3992  72.1288 0014663 282.2437  77.7156 15.18656442 15891
2026-158A               
1 69972U 26158A   26192.48090097 -.00000088  00000+0  30360-4 0  9994
2 69972  49.9853 296.0945 0004897 288.4346  71.6034 14.25145244   172
2026-158B               
1 69973U 26158B   26192.55126534  .00000128  00000+0  12249-3 0  9998
2 69973  49.9848 295.7993 0005672 299.2394  60.7952 14.24885271   180
